H1 CPF 01  gfz 2021 01 18 01  5181 tandemx   
H2 1003001  6202 36605    2021 01 18 00 59 42 2021 01 23 00 00 42   120 1 1  0 0 0
H9
10 0 59234  79182.000000  0    2385375.138  -5091519.818   3971094.034
10 0 59234  79302.000000  0    1972426.894  -4654844.179   4669790.154
10 0 59234  79422.000000  0    1533432.337  -4129372.249   5286304.047
10 0 59234  79542.000000  0    1077549.870  -3523937.068   5809819.542
10 0 59234  79662.000000  0     614059.010  -2848923.117   6231166.048
10 0 59234  79782.000000  0     152171.392  -2116081.196   6542972.317
10 0 59234  79902.000000  0    -299151.214  -1338319.606   6739788.406
10 0 59234  80022.000000  0    -731369.385   -529475.111   6818176.302
10 0 59234  80142.000000  0   -1136526.482    295934.701   6776766.825
10 0 59234  80262.000000  0   -1507394.599   1122971.951   6616281.748
10 0 59234  80382.000000  0   -1837603.153   1936548.011   6339521.756
10 0 59234  80502.000000  0   -2121748.924   2721698.132   5951320.780
10 0 59234  80622.000000  0   -2355485.215   3463857.446   5458466.412
10 0 59234  80742.000000  0   -2535589.196   4149133.431   4869587.891
10 0 59234  80862.000000  0   -2660006.979   4764571.405   4195011.438
10 0 59234  80982.000000  0   -2727874.121   5298406.735   3446583.469
10 0 59234  81102.000000  0   -2739511.104   5740298.047   2637463.900
10 0 59234  81222.000000  0   -2696393.717   6081535.263   1781893.668
10 0 59234  81342.000000  0   -2601099.246   6315218.382    894940.521
10 0 59234  81462.000000  0   -2457228.908   6436402.153     -7772.377
10 0 59234  81582.000000  0   -2269309.085   6442202.811   -910349.696
10 0 59234  81702.000000  0   -2042673.841   6331864.115  -1796914.261
10 0 59234  81822.000000  0   -1783329.717   6106776.683  -2651897.680
10 0 59234  81942.000000  0   -1497808.006   5770452.582  -3460318.149
10 0 59234  82062.000000  0   -1193010.239   5328461.315  -4208044.224
10 0 59234  82182.000000  0    -876049.645   4788325.647  -4882040.563
10 0 59234  82302.000000  0    -554092.356   4159382.336  -5470589.485
10 0 59234  82422.000000  0    -234201.579   3452611.151  -5963487.521
10 0 59234  82542.000000  0      76812.042   2680434.377  -6352212.797
10 0 59234  82662.000000  0     372529.799   1856492.897  -6630060.108
10 0 59234  82782.000000  0     647052.017    995405.118  -6792245.898
10 0 59234  82902.000000  0     895111.514    112509.838  -6835982.264
10 0 59234  83022.000000  0    1112171.216   -776402.265  -6760519.398
10 0 59234  83142.000000  0    1294504.464  -1655364.740  -6567155.478
10 0 59234  83262.000000  0    1439257.430  -2508513.773  -6259216.258
10 0 59234  83382.000000  0    1544493.848  -3320367.727  -5842005.655
10 0 59234  83502.000000  0    1609219.922  -4076106.357  -5322725.176
10 0 59234  83622.000000  0    1633389.292  -4761842.421  -4710359.215
10 0 59234  83742.000000  0    1617888.744  -5364879.306  -4015530.639
10 0 59234  83862.000000  0    1564503.528  -5873954.129  -3250327.513
10 0 59234  83982.000000  0    1475862.278  -6279458.528  -2428099.980
10 0 59234  84102.000000  0    1355364.104  -6573631.538  -1563231.209
10 0 59234  84222.000000  0    1207088.399  -6750719.874   -670885.973
10 0 59234  84342.000000  0    1035688.078  -6807101.070    233259.044
10 0 59234  84462.000000  0     846271.135  -6741364.361   1133297.049
10 0 59234  84582.000000  0     644271.468  -6554348.442   2013379.229
10 0 59234  84702.000000  0     435313.738  -6249133.489   2858004.093
10 0 59234  84822.000000  0     225074.278  -5830985.844   3652299.563
10 0 59234  84942.000000  0      19141.829  -5307259.299   4382289.704
10 0 59234  85062.000000  0    -177117.208  -4687257.431   5035143.505
10 0 59234  85182.000000  0    -358686.213  -3982058.098   5599400.705
10 0 59234  85302.000000  0    -521015.130  -3204305.846   6065171.116
10 0 59234  85422.000000  0    -660124.760  -2367975.231   6424302.933
10 0 59234  85542.000000  0    -772696.250  -1488114.191   6670517.369
10 0 59234  85662.000000  0    -856144.225   -580571.403   6799512.968
10 0 59234  85782.000000  0    -908672.836    338290.638   6809037.327
10 0 59234  85902.000000  0    -929313.030   1251890.864   6698923.971
10 0 59234  86022.000000  0    -917939.893   2143728.384   6471094.908
10 0 59234  86142.000000  0    -875270.714   2997680.042   6129529.135
10 0 59234  86262.000000  0    -802844.114   3798292.750   5680197.664
10 0 59234  86382.000000  0    -702979.989   4531066.018   5130964.270
10 0 59235    102.000000  0    -578721.167   5182719.635   4491454.512
10 0 59235    222.000000  0    -433757.865   5741443.167   3772891.424
10 0 59235    342.000000  0    -272335.732   6197116.951   2987902.049
10 0 59235    462.000000  0     -99151.757   6541508.604   2150298.652
10 0 59235    582.000000  0      80763.331   6768432.502   1274829.510
10 0 59235    702.000000  0     262172.018   6873866.744    376913.716
10 0 59235    822.000000  0     439762.222   6856029.173   -527637.638
10 0 59235    942.000000  0     608282.213   6715407.786  -1422909.426
10 0 59235   1062.000000  0     762672.654   6454744.183  -2293171.023
10 0 59235   1182.000000  0     898193.668   6078973.060  -3123159.024
10 0 59235   1302.000000  0    1010544.775   5595119.076  -3898348.927
10 0 59235   1422.000000  0    1095974.247   5012153.794  -4605210.334
10 0 59235   1542.000000  0    1151375.307   4340816.696  -5231440.156
10 0 59235   1662.000000  0    1174367.022   3593406.027  -5766169.612
10 0 59235   1782.000000  0    1163357.943   2783545.064  -6200143.858
10 0 59235   1902.000000  0    1117591.860   1925927.548  -6525870.789
10 0 59235   2022.000000  0    1037174.937   1036050.310  -6737738.263
10 0 59235   2142.000000  0     923084.043    129935.804  -6832101.857
10 0 59235   2262.000000  0     777156.414   -776151.854  -6807340.538
10 0 59235   2382.000000  0     602060.124  -1665992.402  -6663880.027
10 0 59235   2502.000000  0     401246.891  -2523691.027  -6404185.387
10 0 59235   2622.000000  0     178887.227  -3333955.651  -6032725.709
10 0 59235   2742.000000  0     -60212.177  -4082367.561  -5555905.363
10 0 59235   2862.000000  0    -310705.725  -4755637.389  -4981963.614
10 0 59235   2982.000000  0    -566820.842  -5341844.988  -4320844.180
10 0 59235   3102.000000  0    -822482.832  -5830658.420  -3584033.817
10 0 59235   3222.000000  0   -1071449.850  -6213526.568  -2784371.195
10 0 59235   3342.000000  0   -1307455.225  -6483840.841  -1935829.172
10 0 59235   3462.000000  0   -1524354.142  -6637062.638  -1053272.491
10 0 59235   3582.000000  0   -1716270.647  -6670811.040   -152194.722
10 0 59235   3702.000000  0   -1877741.622  -6584907.893    751559.407
10 0 59235   3822.000000  0   -2003854.245  -6381378.840   1642080.452
10 0 59235   3942.000000  0   -2090372.893  -6064409.745   2503683.478
10 0 59235   4062.000000  0   -2133851.823  -5640259.030   3321193.440
10 0 59235   4182.000000  0   -2131730.569  -5117128.402   4080219.487
10 0 59235   4302.000000  0   -2082409.968  -4504996.456   4767412.351
10 0 59235   4422.000000  0   -1985307.742  -3815420.174   5370700.509
10 0 59235   4542.000000  0   -1840892.359  -3061307.278   5879501.981
10 0 59235   4662.000000  0   -1650692.998  -2256665.699   6284905.375
10 0 59235   4782.000000  0   -1417286.659  -1416338.333   6579819.774
10 0 59235   4902.000000  0   -1144263.932   -555725.692   6759093.338
10 0 59235   5022.000000  0    -836174.138    309498.443   6819596.818
10 0 59235   5142.000000  0    -498449.784   1163671.439   6760274.863
10 0 59235   5262.000000  0    -137310.591   1991425.072   6582163.849
10 0 59235   5382.000000  0     240350.948   2777961.881   6288374.722
10 0 59235   5502.000000  0     627100.143   3509319.709   5884041.787
10 0 59235   5622.000000  0    1015104.610   4172622.022   5376238.496
10 0 59235   5742.000000  0    1396290.983   4756309.088   4773859.545
10 0 59235   5862.000000  0    1762510.964   5250346.379   4087470.348
10 0 59235   5982.000000  0    2105713.493   5646404.084   3329126.647
10 0 59235   6102.000000  0    2418120.438   5938007.817   2512165.938
10 0 59235   6222.000000  0    2692399.139   6120653.914   1650969.664
10 0 59235   6342.000000  0    2921830.116   6191883.983    760704.405
10 0 59235   6462.000000  0    3100462.575   6151317.866   -142952.450
10 0 59235   6582.000000  0    3223256.401   6000645.608  -1044096.567
10 0 59235   6702.000000  0    3286206.467   5743577.259  -1926884.913
10 0 59235   6822.000000  0    3286445.773   5385753.107  -2775821.554
10 0 59235   6942.000000  0    3222325.146   4934615.578  -3576035.869
10 0 59235   7062.000000  0    3093466.514   4399246.126  -4313545.482
10 0 59235   7182.000000  0    2900789.968   3790174.106  -4975498.562
10 0 59235   7302.000000  0    2646514.133   3119161.841  -5550392.682
10 0 59235   7422.000000  0    2334131.496   2398970.874  -6028266.393
10 0 59235   7542.000000  0    1968358.105   1643114.933  -6400861.290
10 0 59235   7662.000000  0    1555060.181    865605.369  -6661752.416
10 0 59235   7782.000000  0    1101159.993     80694.110  -6806448.383
10 0 59235   7902.000000  0     614519.924   -697383.063  -6832461.471
10 0 59235   8022.000000  0     103807.734  -1454659.349  -6739344.271
10 0 59235   8142.000000  0    -421653.521  -2177680.145  -6528695.588
10 0 59235   8262.000000  0    -952051.038  -2853736.262  -6204137.709
10 0 59235   8382.000000  0   -1477261.125  -3471084.917  -5771260.697
10 0 59235   8502.000000  0   -1987037.474  -4019152.529  -5237535.704
10 0 59235   8622.000000  0   -2471207.717  -4488719.009  -4612198.555
10 0 59235   8742.000000  0   -2919875.411  -4872079.650  -3906101.105
10 0 59235   8862.000000  0   -3323622.053  -5163179.227  -3131531.967
10 0 59235   8982.000000  0   -3673705.228  -5357716.516  -2302009.946
10 0 59235   9102.000000  0   -3962249.156  -5453216.298  -1432051.817
10 0 59235   9222.000000  0   -4182422.157  -5449066.095   -536917.723
99
